#aV2008  7 13  0  0   .00000000      96 DD+AD WGS84 FIT  NGA
## 1488       .00000000   900.00000000 54660  .0000000000000
+   31     2  3  4  5  6  7  8  9 10 11 12 13 14 15 16 17 18
+         19 20 21 22 23 24 25 26 27 28 29 30 31 32  0  0  0
+          0  0  0  0  0  0  0  0  0  0  0  0  0  0  0  0  0
+          0  0  0  0  0  0  0  0  0  0  0  0  0  0  0  0  0
+          0  0  0  0  0  0  0  0  0  0  0  0  0  0  0  0  0
++         0  0  0  0  0  0  0  0  0  0  0  0  0  0  0  0  0
++         0  0  0  0  0  0  0  0  0  0  0  0  0  0  0  0  0
++         0  0  0  0  0  0  0  0  0  0  0  0  0  0  0  0  0
++         0  0  0  0  0  0  0  0  0  0  0  0  0  0  0  0  0
++         0  0  0  0  0  0  0  0  0  0  0  0  0  0  0  0  0
%c cc cc ccc ccc cccc cccc cccc cccc ccccc ccccc ccccc ccccc
%c cc cc ccc ccc cccc cccc cccc cccc ccccc ccccc ccccc ccccc
%f  0.0000000  0.000000000  0.00000000000  0.000000000000000
%f  0.0000000  0.000000000  0.00000000000  0.000000000000000
%i    0    0    0    0      0      0      0      0         0
%i    0    0    0    0      0      0      0      0         0
/*      NGA, ST. LOUIS,MO.                                  
/*   EPHEMERIS COMPUTED FROM  3 DAYS OF DATA                
/* CCCCCCCCCCCCCCCCCCCCCCCCCCCCCCCCCCCCCCCCCCCCCCCCCCCCCCCCC
/* CCCCCCCCCCCCCCCCCCCCCCCCCCCCCCCCCCCCCCCCCCCCCCCCCCCCCCCCC
*  2008  7 13 23  0   .00000000                                                 
P  2 -21498.314773   9803.776731 -11908.439973    202.115137                    
V  2   8280.637972 -12953.785007 -26292.057121      -.024517                    
P  3  14814.512414  -5618.188161  21054.156766    255.214056                    
V  3  10229.992446  25520.460271    -28.854245       .052997                    
P  4 -19096.792921   -163.814779 -18701.167579   -114.718733                    
V  4  15590.548968 -17618.788301 -15485.720570      -.097797                    
P  5  -2534.919679  15517.446345 -21683.932463   -356.009614                    
V  5 -26581.310372  -4419.204340     85.228464       .211668                    
P  6  16336.477811   -334.718821  21132.390522    160.472805                    
V  6   7508.530277  25417.541484  -5469.307957       .037297                    
P  7    693.672940 -19009.806647  18473.068755     -4.811379                    
V  7  17601.660276 -15705.208980 -16873.218664       .056089                    
P  8 -10661.838301 -10113.474039  22051.122692   -161.644276                    
V  8  20876.799478 -18842.254917    982.222094      -.015972                    
P  9 -13216.027153  21920.921815  -7427.916209      5.169157                    
V  9  -7532.459360   4771.467532  30226.714259       .018569                    
P 10 -23509.273573   2184.464410  12346.174704     -2.858828                    
V 10 -14588.767055  -6332.985777 -26046.168241      -.002801                    
P 11   8874.320725 -23858.690762  -7118.610079     23.400354                    
V 11   9109.709143  -4818.358716  28459.597605      -.005801                    
P 12  -8076.271598  13256.449395 -21454.698066   -357.074364                    
V 12 -26417.139236  -7460.470002   5409.947531       .007224                    
P 13  -5894.535936 -25903.392809     99.312277    263.690925                    
V 13   1602.685716   -641.216089 -32493.867296       .014766                    
P 14  14326.726194  16281.619730 -15307.485595   -244.498688                    
V 14   3310.591734  19283.036146  23350.110092       .044118                    
P 15  -9438.551085  15841.985149  19132.026207   -142.312170                    
V 15  -8073.576714 -22924.022848  15024.030155      -.063283                    
P 16  25468.498241   1523.579269   7822.832187    117.119794                    
V 16   8800.048778   4848.318745 -29647.642827      -.017182                    
P 17 -15201.153246 -15519.216039 -15349.808303     38.616022                    
V 17  -3076.224662 -19360.778605  22394.806696       .000529                    
P 18  12556.849677  16493.786404  16997.100690   -156.740960                    
V 18 -20737.092283  -4361.618009  19405.750651       .043042                    
P 19  10094.891961 -16084.499813  18573.595189     33.484944                    
V 19   6242.722659  22705.001991  16536.016146       .004880                    
P 20   6369.043388 -14389.453701 -21507.384960    109.989644                    
V 20  26262.119196   6682.535105   3361.768531      -.008672                    
P 21   5304.751938  15990.712730  20606.241992     58.121167                    
V 21 -19544.036615  17118.270521  -8951.549530      -.012889                    
P 22  22929.238304  11889.861066   6483.347857    211.523346                    
V 22  -8587.191327    612.210787  29911.956205      -.000741                    
P 23   1390.916368 -23953.352549 -11171.505117    364.191123                    
V 23   5955.035879  13051.499190 -27657.672275       .018238                    
P 24  -9448.796325  21322.080290  13127.714133    109.247488                    
V 24 -13529.783364   9382.481363 -25026.164055       .028723                    
P 25   5820.664312 -22261.392128  13778.277341   -189.169109                    
V 25  12063.105239 -11874.065864 -24755.812727      -.110722                    
P 26 -11465.840272  10748.575703  20805.449010    291.886483                    
V 26  -6968.713621 -26739.782725  10260.060797       .068522                    
P 27  -2902.591060 -17722.328998  20202.959142    202.583157                    
V 27  16663.763717 -17576.830691 -13610.371912       .027373                    
P 28 -22248.389911 -12483.852793   8371.472619    -21.002593                    
V 28  10208.769102    708.350567  29236.494703      -.003075                    
P 29   4468.325827  26018.416081  -2951.954892    -41.608118                    
V 29  -3694.272885  -3076.222679 -31409.818692       .004775                    
P 30   6933.612135  16289.339998 -20175.887520     85.774973                    
V 30 -24532.185172  -4221.713713 -11949.652621       .018729                    
P 31  19244.557737  -1917.222356 -18054.009657    -24.907145                    
V 31 -15248.909363  17637.690310 -17820.885031       .004812                    
P 32  14647.697056  -9176.801223 -19684.837629    306.730732                    
V 32  24088.764849   9806.314723  13238.159213       .029906                    
EOF
